{"type": "FeatureCollection", "features": [ {"type": "Feature", "properties": {"norad_id": 66613, "name": "STARLINK-36037", "group": "last-30-days", "lat": -34.219821020120285, "lon": 16.71080226014415, "alt_km": 446.0259980510482, "timestamp": "2025-12-20T03:42:46.118728+00:00", "meta": {"OBJECT_NAME": "STARLINK-36037", "OBJECT_ID": "2025-270AB", "EPOCH": "2025-12-19T11:08:12.783840", "MEAN_MOTION": 15.40728789, "ECCENTRICITY": 0.0001195, "INCLINATION": 42.9985, "RA_OF_ASC_NODE": 153.8159, "ARG_OF_PERICENTER": 252.8559, "MEAN_ANOMALY": 107.2167, "EPHEMERIS_TYPE": 0, "CLASSIFICATION_TYPE": "U", "NORAD_CAT_ID": 66613, "ELEMENT_SET_NO": 999, "REV_AT_EPOCH": 538, "BSTAR": 0.00080999, "MEAN_MOTION_DOT": 0.00033714, "MEAN_MOTION_DDOT": 0}, "tle": {"line1": "1 66613U 25270AB  25353.46403685  .00033714  00000+0  80999-3 0  9997", "line2": "2 66613  42.9985 153.8159 0001195 252.8559 107.2167 15.40728789  5386"}}, "geometry": {"type": "Point", "coordinates": [16.71080226014415, -34.219821020120285]}}, {"type": "Feature", "properties": {"norad_id": 66614, "name": "STARLINK-36040", "group": "last-30-days", "lat": -8.68236434069015, "lon": 140.1346251754653, "alt_km": 444.3605754226892, "timestamp": "2025-12-20T03:42:46.118740+00:00", "meta": {"OBJECT_NAME": "STARLINK-36040", "OBJECT_ID": "2025-270AC", "EPOCH": "2025-12-19T20:00:01.999008", "MEAN_MOTION": 15.40657951, "ECCENTRICITY": 0.0001872, "INCLINATION": 43, "RA_OF_ASC_NODE": 151.4186, "ARG_OF_PERICENTER": 279.6124, "MEAN_ANOMALY": 83.2289, "EPHEMERIS_TYPE": 0, "CLASSIFICATION_TYPE": "U", "NORAD_CAT_ID": 66614, "ELEMENT_SET_NO": 999, "REV_AT_EPOCH": 538, "BSTAR": 0.0013572, "MEAN_MOTION_DOT": 0.00056735, "MEAN_MOTION_DDOT": 0}, "tle": {"line1": "1 66614U 25270AC  25353.83335647  .00056735  00000+0  13572-2 0  9991", "line2": "2 66614  43.0000 151.4186 0001872 279.6124  83.2289 15.40657951  5388"}}, "geometry": {"type": "Point", "coordinates": [140.1346251754653, -8.68236434069015]}}, {"type": "Feature", "properties": {"norad_id": 66615, "name": "STARLINK-35988", "group": "last-30-days", "lat": -42.91601267431284, "lon": 63.54319540278008, "alt_km": 446.3068098345093, "timestamp": "2025-12-20T03:42:46.118750+00:00", "meta": {"OBJECT_NAME": "STARLINK-35988", "OBJECT_ID": "2025-270AD", "EPOCH": "2025-12-19T18:45:18.192384", "MEAN_MOTION": 15.40740472, "ECCENTRICITY": 0.0001379, "INCLINATION": 42.9991, "RA_OF_ASC_NODE": 151.897, "ARG_OF_PERICENTER": 259.7839, "MEAN_ANOMALY": 100.2862, "EPHEMERIS_TYPE": 0, "CLASSIFICATION_TYPE": "U", "NORAD_CAT_ID": 66615, "ELEMENT_SET_NO": 999, "REV_AT_EPOCH": 527, "BSTAR": 0.00069381, "MEAN_MOTION_DOT": 0.00028827, "MEAN_MOTION_DDOT": 0}, "tle": {"line1": "1 66615U 25270AD  25353.78146056  .00028827  00000+0  69381-3 0  9991", "line2": "2 66615  42.9991 151.8970 0001379 259.7839 100.2862 15.40740472  5271"}}, "geometry": {"type": "Point", "coordinates": [63.54319540278008, -42.91601267431284]}}, {"type": "Feature", "properties": {"norad_id": 66616, "name": "STARLINK-35391", "group": "last-30-days", "lat": 8.21587270718938, "lon": 158.41995189163532, "alt_km": 442.68384181482725, "timestamp": "2025-12-20T03:42:46.118760+00:00", "meta": {"OBJECT_NAME": "STARLINK-35391", "OBJECT_ID": "2025-270AE", "EPOCH": "2025-12-19T20:00:01.999008", "MEAN_MOTION": 15.40661614, "ECCENTRICITY": 0.0001389, "INCLINATION": 43.0001, "RA_OF_ASC_NODE": 151.3586, "ARG_OF_PERICENTER": 280.1292, "MEAN_ANOMALY": 107.6014, "EPHEMERIS_TYPE": 0, "CLASSIFICATION_TYPE": "U", "NORAD_CAT_ID": 66616, "ELEMENT_SET_NO": 999, "REV_AT_EPOCH": 564, "BSTAR": 0.0013811, "MEAN_MOTION_DOT": 0.00057753, "MEAN_MOTION_DDOT": 0}, "tle": {"line1": "1 66616U 25270AE  25353.83335647  .00057753  00000+0  13811-2 0  9990", "line2": "2 66616  43.0001 151.3586 0001389 280.1292 107.6014 15.40661614  5647"}}, "geometry": {"type": "Point", "coordinates": [158.41995189163532, 8.21587270718938]}}, {"type": "Feature", "properties": {"norad_id": 66617, "name": "STARLINK-35940", "group": "last-30-days", "lat": -46.98725873300348, "lon": 25.623708686597865, "alt_km": 452.4072645129163, "timestamp": "2025-12-20T03:42:46.118770+00:00", "meta": {"OBJECT_NAME": "STARLINK-35940", "OBJECT_ID": "2025-271A", "EPOCH": "2025-12-19T00:00:02.000160", "MEAN_MOTION": 15.39596888, "ECCENTRICITY": 0.00013918, "INCLINATION": 53.1586, "RA_OF_ASC_NODE": 157.5858, "ARG_OF_PERICENTER": 105.8265, "MEAN_ANOMALY": 216.5412, "EPHEMERIS_TYPE": 0, "CLASSIFICATION_TYPE": "U", "NORAD_CAT_ID": 66617, "ELEMENT_SET_NO": 999, "REV_AT_EPOCH": 524, "BSTAR": 0.00083644886, "MEAN_MOTION_DOT": 0.00033178, "MEAN_MOTION_DDOT": 0}, "tle": {"line1": "1 66617U 25271A   25353.00002315  .00033178  00000+0  83645-3 0  9992", "line2": "2 66617  53.1586 157.5858 0001391 105.8265 216.5412 15.39596888  5240"}}, "geometry": {"type": "Point", "coordinates": [25.623708686597865, -46.98725873300348]}}, {"type": "Feature", "properties": {"norad_id": 66618, "name": "STARLINK-35970", "group": "last-30-days", "lat": 42.240024655184264, "lon": -71.24051746879175, "alt_km": 412.3280823892301, "timestamp": "2025-12-20T03:42:46.118781+00:00", "meta": {"OBJECT_NAME": "STARLINK-35970", "OBJECT_ID": "2025-271B", "EPOCH": "2025-12-18T21:46:16.468320", "MEAN_MOTION": 15.49335101, "ECCENTRICITY": 7.172e-05, "INCLINATION": 53.159, "RA_OF_ASC_NODE": 157.6323, "ARG_OF_PERICENTER": 82.1987, "MEAN_ANOMALY": 277.9103, "EPHEMERIS_TYPE": 0, "CLASSIFICATION_TYPE": "U", "NORAD_CAT_ID": 66618, "ELEMENT_SET_NO": 999, "REV_AT_EPOCH": 516, "BSTAR": 0.00091874022, "MEAN_MOTION_DOT": 0.0005103, "MEAN_MOTION_DDOT": 0}, "tle": {"line1": "1 66618U 25271B   25352.90713505  .00051030  00000+0  91874-3 0  9991", "line2": "2 66618  53.1590 157.6323 0000717  82.1987 277.9103 15.49335101  5162"}}, "geometry": {"type": "Point", "coordinates": [-71.24051746879175, 42.240024655184264]}}, {"type": "Feature", "properties": {"norad_id": 66619, "name": "STARLINK-35951", "group": "last-30-days", "lat": 51.198056345385766, "lon": -139.42663391864392, "alt_km": 411.0017665833875, "timestamp": "2025-12-20T03:42:46.118791+00:00", "meta": {"OBJECT_NAME": "STARLINK-35951", "OBJECT_ID": "2025-271C", "EPOCH": "2025-12-19T04:09:37.126368", "MEAN_MOTION": 15.49333473, "ECCENTRICITY": 9.562e-05, "INCLINATION": 53.1599, "RA_OF_ASC_NODE": 156.4548, "ARG_OF_PERICENTER": 94.0612, "MEAN_ANOMALY": 266.0506, "EPHEMERIS_TYPE": 0, "CLASSIFICATION_TYPE": "U", "NORAD_CAT_ID": 66619, "ELEMENT_SET_NO": 999, "REV_AT_EPOCH": 520, "BSTAR": 0.00056183795, "MEAN_MOTION_DOT": 0.00030949, "MEAN_MOTION_DDOT": 0}, "tle": {"line1": "1 66619U 25271C   25353.17334637  .00030949  00000+0  56184-3 0  9998", "line2": "2 66619  53.1599 156.4548 0000956  94.0612 266.0506 15.49333473  5201"}}, "geometry": {"type": "Point", "coordinates": [-139.42663391864392, 51.198056345385766]}}, {"type": "Feature", "properties": {"norad_id": 66620, "name": "STARLINK-35936", "group": "last-30-days", "lat": 49.284538506311684, "lon": -147.63229065682356, "alt_km": 410.96200080483504, "timestamp": "2025-12-20T03:42:46.118801+00:00", "meta": {"OBJECT_NAME": "STARLINK-35936", "OBJECT_ID": "2025-271D", "EPOCH": "2025-12-18T20:26:38.659776", "MEAN_MOTION": 15.49341209, "ECCENTRICITY": 0.0001202, "INCLINATION": 53.1598, "RA_OF_ASC_NODE": 158.0059, "ARG_OF_PERICENTER": 74.9181, "MEAN_ANOMALY": 285.1961, "EPHEMERIS_TYPE": 0, "CLASSIFICATION_TYPE": "U", "NORAD_CAT_ID": 66620, "ELEMENT_SET_NO": 999, "REV_AT_EPOCH": 515, "BSTAR": 0.00062165334, "MEAN_MOTION_DOT": 0.00034317, "MEAN_MOTION_DDOT": 0}, "tle": {"line1": "1 66620U 25271D   25352.85183634  .00034317  00000+0  62165-3 0  9992", "line2": "2 66620  53.1598 158.0059 0001202  74.9181 285.1961 15.49341209  5157"}}, "geometry": {"type": "Point", "coordinates": [-147.63229065682356, 49.284538506311684]}}, {"type": "Feature", "properties": {"norad_id": 66621, "name": "STARLINK-35847", "group": "last-30-days", "lat": 40.25950133664157, "lon": -67.75642951231758, "alt_km": 412.7916361510979, "timestamp": "2025-12-20T03:42:46.118813+00:00", "meta": {"OBJECT_NAME": "STARLINK-35847", "OBJECT_ID": "2025-271E", "EPOCH": "2025-12-19T07:02:43.202112", "MEAN_MOTION": 15.49312278, "ECCENTRICITY": 0.000134, "INCLINATION": 53.1591, "RA_OF_ASC_NODE": 155.7767, "ARG_OF_PERICENTER": 58.27, "MEAN_ANOMALY": 301.844, "EPHEMERIS_TYPE": 0, "CLASSIFICATION_TYPE": "U", "NORAD_CAT_ID": 66621, "ELEMENT_SET_NO": 999, "REV_AT_EPOCH": 522, "BSTAR": 0.0010412, "MEAN_MOTION_DOT": 0.00057898, "MEAN_MOTION_DDOT": 0}, "tle": {"line1": "1 66621U 25271E   25353.29355558  .00057898  00000+0  10412-2 0  9994", "line2": "2 66621  53.1591 155.7767 0001340  58.2700 301.8440 15.49312278  5226"}}, "geometry": {"type": "Point", "coordinates": [-67.75642951231758, 40.25950133664157]}}, {"type": "Feature", "properties": {"norad_id": 66622, "name": "STARLINK-35950", "group": "last-30-days", "lat": -8.943819671628898, "lon": 145.16319987572228, "alt_km": 449.2932149897233, "timestamp": "2025-12-20T03:42:46.118824+00:00", "meta": {"OBJECT_NAME": "STARLINK-35950", "OBJECT_ID": "2025-271F", "EPOCH": "2025-12-19T20:00:01.999008", "MEAN_MOTION": 15.39594072, "ECCENTRICITY": 0.0001198, "INCLINATION": 53.1599, "RA_OF_ASC_NODE": 153.4539, "ARG_OF_PERICENTER": 83.3869, "MEAN_ANOMALY": 283.4409, "EPHEMERIS_TYPE": 0, "CLASSIFICATION_TYPE": "U", "NORAD_CAT_ID": 66622, "ELEMENT_SET_NO": 999, "REV_AT_EPOCH": 538, "BSTAR": 0.0010636, "MEAN_MOTION_DOT": 0.00042346, "MEAN_MOTION_DDOT": 0}, "tle": {"line1": "1 66622U 25271F   25353.83335647  .00042346  00000+0  10636-2 0  9992", "line2": "2 66622  53.1599 153.4539 0001198  83.3869 283.4409 15.39594072  5383"}}, "geometry": {"type": "Point", "coordinates": [145.16319987572228, -8.943819671628898]}}]}